{
    "links": {
        "self": "http://www.neowsapp.com/rest/v1/neo/3578627?api_key=iIulBulltgU6a56xZRHN4H3l9WmuAYTsLGpBGhQ2"
    },
    "id": "3578627",
    "neo_reference_id": "3578627",
    "name": "(2011 SP5)",
    "designation": "2011 SP5",
    "nasa_jpl_url": "http://ssd.jpl.nasa.gov/sbdb.cgi?sstr=3578627",
    "absolute_magnitude_h": 26.6,
    "estimated_diameter": {
        "kilometers": {
            "estimated_diameter_min": 0.0127219879,
            "estimated_diameter_max": 0.0284472297
        },
        "meters": {
            "estimated_diameter_min": 12.7219878539,
            "estimated_diameter_max": 28.4472296503
        },
        "miles": {
            "estimated_diameter_min": 0.0079050743,
            "estimated_diameter_max": 0.0176762835
        },
        "feet": {
            "estimated_diameter_min": 41.7388066307,
            "estimated_diameter_max": 93.330808926
        }
    },
    "is_potentially_hazardous_asteroid": false,
    "close_approach_data": [
        {
            "close_approach_date": "2009-10-14",
            "close_approach_date_full": "2009-Oct-14 08:44",
            "epoch_date_close_approach": 1255509840000,
            "relative_velocity": {
                "kilometers_per_second": "15.9091026703",
                "kilometers_per_hour": "57272.7696132002",
                "miles_per_hour": "35587.0717632688"
            },
            "miss_distance": {
                "astronomical": "0.461076222",
                "lunar": "179.358650358",
                "kilometers": "68976020.71884714",
                "miles": "42859711.843444932"
            },
            "orbiting_body": "Earth"
        },
        {
            "close_approach_date": "2011-09-08",
            "close_approach_date_full": "2011-Sep-08 16:41",
            "epoch_date_close_approach": 1315500060000,
            "relative_velocity": {
                "kilometers_per_second": "3.9849491284",
                "kilometers_per_hour": "14345.8168621319",
                "miles_per_hour": "8913.9327052508"
            },
            "miss_distance": {
                "astronomical": "0.064449152",
                "lunar": "25.070720128",
                "kilometers": "9641455.86250624",
                "miles": "5990922.870176512"
            },
            "orbiting_body": "Earth"
        },
        {
            "close_approach_date": "2013-07-25",
            "close_approach_date_full": "2013-Jul-25 14:29",
            "epoch_date_close_approach": 1374762540000,
            "relative_velocity": {
                "kilometers_per_second": "15.3810806342",
                "kilometers_per_hour": "55371.8902830221",
                "miles_per_hour": "34405.9392705811"
            },
            "miss_distance": {
                "astronomical": "0.4408020311",
                "lunar": "171.4719900979",
                "kilometers": "65943044.944233757",
                "miles": "40975108.0873375666"
            },
            "orbiting_body": "Earth"
        }
    ],
    "orbital_data": {
        "orbit_id": "6",
        "orbit_determination_date": "2017-04-06 08:52:51",
        "first_observation_date": "2011-09-18",
        "last_observation_date": "2011-09-26",
        "data_arc_in_days": 8,
        "observations_used": 20,
        "orbit_uncertainty": "8",
        "minimum_orbit_intersection": ".0642881",
        "jupiter_tisserand_invariant": "4.393",
        "epoch_osculation": "2455827.5",
        "eccentricity": ".3089279368338808",
        "semi_major_axis": "1.549860060650021",
        "inclination": "3.790296183968364",
        "ascending_node_longitude": "173.4570899025959",
        "orbital_period": "704.7533631821786",
        "perihelion_distance": "1.071064989732177",
        "perihelion_argument": "172.1477253258355",
        "aphelion_distance": "2.028655131567866",
        "perihelion_time": "2455813.509525365807",
        "mean_anomaly": "7.146572306612075",
        "mean_motion": ".510817001815343",
        "equinox": "J2000",
        "orbit_class": {
            "orbit_class_type": "AMO",
            "orbit_class_description": "Near-Earth asteroid orbits similar to that of 1221 Amor",
            "orbit_class_range": "1.017 AU < q (perihelion) < 1.3 AU"
        }
    },
    "is_sentry_object": false
}